0 THOR ABLESTAR DEB
1 00246U 61015CB  13281.27478709 -.00000033  00000-0  36305-4 0  6876
2 00246 066.8700 222.0626 0064111 167.9421 343.7663 13.85560492982143
0 THOR ABLESTAR DEB
1 00246U 61015CB  13283.36536019 -.00000056  00000-0  16606-4 0  6885
2 00246 066.8701 217.0176 0063948 166.4310 331.6164 13.85561033982432
0 THOR ABLESTAR DEB
1 00246U 61015CB  13285.45401741 -.00000039  00000-0  31040-4 0  6891
2 00246 066.8702 211.9773 0063792 164.8906 309.9461 13.85561007982720
0 THOR ABLESTAR DEB
1 00246U 61015CB  13287.82584145  .00000007  00000-0  70585-4 0  6907
2 00246 066.8701 206.2537 0063619 163.1668 260.7016 13.85560999983055
0 THOR ABLESTAR DEB
1 00246U 61015CB  13289.84608185  .00000010  00000-0  72961-4 0  6917
2 00246 066.8698 201.3788 0063454 161.7078 257.7336 13.85561351983335
0 THOR ABLESTAR DEB
1 00246U 61015CB  13291.86871699  .00000003  00000-0  67664-4 0  6921
2 00246 066.8695 196.4981 0063321 160.1835 266.7768 13.85561784983618
0 THOR ABLESTAR DEB
1 00246U 61015CB  13294.19810334 -.00000012  00000-0  53961-4 0  6936
2 00246 066.8692 190.8770 0063156 158.4416 005.9058 13.85562410983937
